SB KEPS @ AMSAT  $ORB13290.N
2Line Orbital Elements 13290.AMSAT

HR AMSAT ORBITAL ELEMENTS FOR AMATEUR SATELLITES IN NASA FORMAT
FROM WA5QGD FORT WORTH,TX October 17, 2013
BID: ORB13290.N

DECODE 2-LINE ELSETS WITH THE FOLLOWING KEY:
1 AAAAAU 00  0  0 BBBBB.BBBBBBBB  .CCCCCCCC  00000-0  00000-0 0  DDDZ
2 AAAAA EEE.EEEE FFF.FFFF GGGGGGG HHH.HHHH III.IIII JJ.JJJJJJJJKKKKKZ
KEY: A-CATALOGNUM B-EPOCHTIME C-DECAY D-ELSETNUM E-INCLINATION F-RAAN
G-ECCENTRICITY H-ARGPERIGEE I-MNANOM J-MNMOTION K-ORBITNUM Z-CHECKSUM

TO ALL RADIO AMATEURS BT

AO-07
1 07530U 74089B   13290.14633130 -.00000053  00000-0 -63862-4 0  8010
2 07530 101.4451 275.2790 0012269 050.8503 082.8299 12.53599025781067
FO-29
1 24278U 96046B   13289.11805486 -.00000036  00000-0 -87265-7 0  2229
2 24278 098.5397 331.4264 0350294 210.5757 205.3702 13.53007743847662
SO-33
1 25509U 98061B   13288.83434160  .00001267  00000-0  23923-3 0  6058
2 25509 031.4324 104.4883 0350759 134.2689 353.8148 14.29160406782169
RS-22
1 27939U 03042A   13290.34188019  .00001025  00000-0  20109-3 0  8620
2 27939 097.7993 111.8386 0013487 155.3191 204.8689 14.64607601537177
VO-52
1 28650U 05017B   13289.50535037  .00001612  00000-0  19780-3 0  5539
2 28650 097.5647 301.8842 0024583 238.6839 281.6813 14.84203386457079
HO-68
1 36122U 09072B   13289.66096144 -.00000044  00000-0  00000 0 0  9810
2 36122 100.2912 343.5625 0007789 077.2684 282.9297 13.16307512184397
UO-11
1 14781U 84021B   13289.25026163  .00000686  00000-0  95152-4 0  3129
2 14781 097.8885 348.7443 0007695 249.7904 110.2481 14.81043306591858
AO-16
1 20439U 90005D   13289.85576584  .00000174  00000-0  80428-4 0  8642
2 20439 098.4821 227.1103 0011602 154.0221 274.9232 14.32214755239651
LO-19
1 20442U 90005G   13289.10773419  .00000144  00000-0  68762-4 0  8015
2 20442 098.4520 227.7825 0012671 146.9745 280.3355 14.32422661239740
AO-27
1 22825U 93061C   13289.84879928  .00000141  00000-0  72407-4 0  5037
2 22825 098.6317 232.6517 0007284 293.6211 130.7832 14.29598049 46012
IO-26
1 22826U 93061D   13289.82197086  .00000157  00000-0  77983-4 0  2582
2 22826 098.6258 232.8879 0007800 285.5989 127.4831 14.29885958 46140
GO-32
1 25397U 98043D   13289.46896344  .00000075  00000-0  51300-4 0  1837
2 25397 098.4330 252.0485 0000491 016.4894 132.6023 14.23364399793197
NO-44
1 26931U 01043C   13289.18121010  .00000091  00000-0  67185-4 0  4431
2 26931 067.0515 307.5928 0007401 264.8912 158.8018 14.29968317628721
SO-50
1 27607U 02058C   13289.10955609  .00000941  00000-0  16539-3 0  1976
2 27607 064.5572 255.9671 0033421 116.2412 009.6740 14.73111932581527
CO-55
1 27844U 03031E   13289.78145564  .00000293  00000-0  15467-3 0  7656
2 27844 098.7017 297.0943 0008722 255.3708 156.6225 14.21284459534001
CO-57
1 27848U 03031J   13288.83386810  .00000246  00000-0  13374-3 0  7075
2 27848 098.7105 295.7376 0008574 265.3224 218.0576 14.21001266533797
AO-51
1 28375U 04025K   13289.82036858  .00000343  00000-0  11507-3 0  6803
2 28375 098.2180 240.4892 0083359 009.1003 047.1163 14.41175084488855
CP3
1 31129U 07012N   13289.66709073  .00001413  00000-0  32453-3 0  5767
2 31129 097.9093 275.5247 0100849 049.9819 001.6420 14.53851190344640
CO-65
1 32785U 08021C   13289.75178087  .00001684  00000-0  20746-3 0  7632
2 32785 097.7363 343.7426 0012849 266.8951 213.9671 14.84173992295904
PRISM
1 33493U 09002B   13290.33480595  .00004116  00000-0  46872-3 0  2754
2 33493 098.2309 091.4600 0018536 152.9103 207.3108 14.86651733256063
SOHLA-1
1 33496U 09002E   13289.82108736  .00000537  00000-0  97109-4 0  1733
2 33496 098.1480 045.6138 0005248 298.2474 187.6303 14.70394887253749
SO-67
1 35870U 09049F   13290.33345385  .00006819  00000-0  24994-3 0  5210
2 35870 097.1847 314.7525 0000276 133.3060 357.4142 15.28301266226908
TISAT-1
1 36799U 10035E   13290.33187935  .00002518  00000-0  31024-3 0  5420
2 36799 098.0294 015.7477 0015113 036.0760 324.1479 14.83764551176684
STUDSAT
1 36801U 10035G   13289.13568277  .00011976  00000-0  12517-2 0  6954
2 36801 098.0435 018.9021 0011055 018.7009 042.1741 14.89783871176714
ALMASAT-1
1 38078U 12006B   13290.32127579  .00046127  00000-0  10851-2 0  7092
2 38078 069.4759 276.3915 0674365 349.7423 009.0496 14.30471515 86670
XATCOBEO
1 38082U 12006F   13290.22804269  .00143810  65808-5  23297-2 0  5897
2 38082 069.4698 235.7052 0508171 327.6242 029.4175 14.73294950 87789
SOMP
1 39135U 13015F   13289.90092669  .00005328  00000-0  42733-3 0  3494
2 39135 064.8796 186.1480 0002553 298.6362 061.4499 15.01084904 27095
CUBEBUG-1
1 39153U 13018D   13290.31821387  .00001401  00000-0  20721-3 0  4921
2 39153 098.0652 006.0207 0019398 053.9671 306.3343 14.76670405 25705
ESTCUBE-1
1 39161U 13021C   13290.15155486  .00001129  00000-0  20008-3 0  4639
2 39161 098.1209 007.7243 0011503 087.2334 273.0203 14.69160644 23903
NOAA-10
1 16969U 86073A   13289.52485128  .00000088  00000-0  53283-4 0  5349
2 16969 098.5363 314.6692 0011327 246.4655 277.1382 14.27670895409253
NOAA-11
1 19531U 88089A   13289.35312644  .00000108  00000-0  78164-4 0  5538
2 19531 098.7039 009.4869 0010181 274.3049 085.6961 14.15031457293250
NOAA-12
1 21263U 91032A   13289.47247522  .00000045  00000-0  37459-4 0   100
2 21263 098.6884 313.8497 0013346 223.1138 241.2877 14.25590823165834
MET-3/5
1 21655U 91056A   13289.79781456 -.00000142  00000-0 -39974-3 0  8094
2 21655 082.5569 168.3850 0013315 181.2680 178.8411 13.17050888 65941
MET-2/21
1 22782U 93055A   13289.02324556  .00000040  00000-0  23124-4 0  8701
2 22782 082.5524 007.0405 0021727 227.3874 187.1469 13.83715081 16355
OKEAN-4
1 23317U 94066A   13289.84019676  .00001209  00000-0  13952-3 0  3512
2 23317 082.5364 295.9150 0021470 179.8803 174.5038 14.84678570 26980
NOAA-14
1 23455U 94089A   13289.44755376  .00000111  00000-0  81284-4 0  4886
2 23455 098.7972 012.0141 0009510 019.8867 108.8868 14.13923222969503
NOAA-15
1 25338U 98030A   13289.47799691  .00000148  00000-0  81753-4 0  9133
2 25338 098.7356 279.0906 0011658 132.5822 030.7640 14.25275792802125
RESURS
1 25394U 98043A   13290.11393823  .00000028  00000-0  29969-4 0  4941
2 25394 098.3791 260.2011 0000594 196.9696 293.5374 14.24339220793718
FENGYUN1
1 25730U 99025A   13289.82314054  .00002328  00000-0  13213-2 0  9887
2 25730 098.8904 247.9191 0027885 067.1739 348.9941 14.10736858743198
OKEAN-0
1 25860U 99039A   13289.83960078  .00000672  00000-0  10812-3 0   738
2 25860 098.0080 250.7698 0002138 108.9115 306.0452 14.74728735766281
NOAA-16
1 26536U 00055A   13289.44300227  .00000228  00000-0  14703-3 0  4026
2 26536 099.0275 343.3216 0011292 150.5119 325.9329 14.12927072673694
NOAA-17
1 27453U 02032A   13289.44226241  .00000139  00000-0  77065-4 0  3082
2 27453 098.3120 297.0924 0012274 165.0489 298.8378 14.24627544587989
NOAA-18
1 28654U 05018A   13289.42078595  .00000274  00000-0  17540-3 0  7993
2 28654 099.1169 259.4758 0013620 225.4082 286.3076 14.11874226433162
NOAA-19
1 33591U 09005A   13289.46437409  .00000268  00000-0  17196-3 0  9729
2 33591 098.9157 230.6301 0015126 088.0205 049.4502 14.11562651241604
HUBBLE
1 20580U 90037B   13289.84173819  .00002990  00000-0  19898-3 0  3541
2 20580 028.4697 195.0945 0003022 206.0202 223.4255 15.04024040 88026
ISS
1 25544U 98067A   13290.41521157  .00012626  00000-0  23129-3 0  8234
2 25544 051.6518 222.6970 0002665 038.3962 063.2634 15.49695258853662
CO-58
1 28895U 05043F   13289.56186215  .00000727  00000-0  15590-3 0  5985
2 28895 097.8536 138.8774 0018675 062.1589 298.1502 14.61268087424660
FALCON
1 30776U 07006E   13289.71278597  .00009284  00000-0  53571-3 0  7169
2 30776 035.4299 175.7731 0002661 279.3528 182.6581 15.11684997363812
MAST
1 31126U 07012K   13289.43394130  .00000871  00000-0  20202-3 0  8784
2 31126 097.8914 278.5040 0093603 035.4803 118.1543 14.54707051344944
CAPE1
1 31130U 07012P   13289.40523422  .00001184  00000-0  27454-3 0  8788
2 31130 097.9102 274.8907 0101308 051.8170 309.2099 14.53662333344380
COMPASS
1 32787U 08021E   13289.43022496  .00003570  00000-0  41426-3 0  7556
2 32787 097.7388 344.7928 0013114 263.3848 096.5875 14.85971713295969
AAUSAT2
1 32788U 08021F   13290.13999023  .00004100  00000-0  46908-3 0  7397
2 32788 097.7397 346.2151 0012739 260.2446 099.7331 14.86477086296112
DO-64
1 32789U 08021G   13289.68464457  .00007624  00000-0  80525-3 0  7728
2 32789 097.7569 350.3039 0012151 252.1152 224.5360 14.89469555296202
CO-66
1 32791U 08021J   13289.14140760  .00003210  00000-0  38173-3 0  7303
2 32791 097.7386 343.7083 0013625 266.8109 146.0726 14.85016341295826
RS-30
1 32953U 08025A   13290.16001363  .00000010  00000-0  00000 0 0  2962
2 32953 082.5070 352.3437 0017755 329.8075 030.1977 12.43037942245061
METEOR-M
1 35865U 09049A   13290.31560704 -.00000035  00000-0  35962-5 0  8998
2 35865 098.5886 339.6506 0003458 078.7880 281.3691 14.21893967211827
RS-38
1 35869U 09049E   13290.25716437  .00000014  00000-0  25684-4 0  8569
2 35869 098.5816 339.4712 0005525 080.0187 280.1617 14.22148427211846
JUGNU
1 37839U 11058B   13288.36261753  .00000478  00000-0  11345-3 0  4823
2 37839 019.9620 298.6048 0018883 166.4214 320.0841 14.12188988103909
SRMSAT
1 37841U 11058D   13288.44717847  .00000420  00000-0  86468-4 0  4821
2 37841 019.9725 312.5283 0012024 116.1082 024.8224 14.10253717103771
RAX-2
1 37853U 11061D   13289.72291184  .00011657  00000-0  85759-3 0  6198
2 37853 101.6982 199.6842 0232293 038.7517 013.9592 14.84563030106477
AUBIESAT
1 37854U 11061E   13288.74407307  .00012510  00000-0  89995-3 0  6078
2 37854 101.7020 199.3813 0231894 039.8101 023.7504 14.85352593106354
HRBE
1 37855U 11061F   13289.71884661  .00012250  00000-0  88644-3 0  6159
2 37855 101.7020 200.4741 0233109 037.6985 014.8788 14.84985630106488
RS-39
1 38051U 11062C   13290.32283444  .00022999  00000-0  65226-3 0  8839
2 38051 051.6361 339.6198 0010975 351.9360 101.3592 15.36073445 96531
E-STAR
1 38079U 12006C   13289.94727742  .00113140  51010-5  20412-2 0  5305
2 38079 069.4705 247.9204 0563546 334.2519 075.7377 14.59493809 87423
GOLIAT
1 38085U 12006J   13290.28206166  .00106349  48368-5  19403-2 0  4675
2 38085 069.4730 250.3618 0575173 335.4021 022.0659 14.56820143 87380
HORYU-2
1 38340U 12025D   13289.78682821  .00002131  00000-0  35347-3 0  6385
2 38340 098.2296 238.5927 0011843 223.8290 136.1982 14.71239526 75995
RS-40
1 38736U 12041D   13289.94694031  .00000010  00000-0  00000 0 0  3998
2 38736 082.4746 079.2027 0022168 061.5867 298.7454 12.42871767 55373
PROITERES
1 38756U 12047B   13290.28014699  .00000820  00000-0  13159-3 0  2127
2 38756 098.2455 009.5189 0013969 078.5625 281.7159 14.74369515 59380
RAIKO
1 38852U 98067CN  13218.07382584  .24681979  12625-4  36599-3 0  3409
2 38852 051.6160 184.0336 0004489 261.9162 100.6538 16.48474690 47849
FITSAT 1
1 38853U 98067CP  13184.86912902  .06638326  12312-4  50483-3 0  3153
2 38853 051.6252 351.6077 0011722 245.9321 114.2104 16.39337660 42708
TechEdSat
1 38854U 98067CQ  13124.93253577  .11592855  12481-4  94246-3 0  2908
2 38854 051.6449 297.0261 0010505 310.8629 049.0629 16.38844728 33294
F 1
1 38855U 98067CR  13129.77714356  .27424026  12535-4  30797-3 0  2871
2 38855 051.5085 272.4145 0008326 194.2908 166.5495 16.49710473 33949
WeWish
1 38856U 98067CS  13069.98095549  .16701328  12537-4  10063-2 0  2487
2 38856 051.6166 215.0521 0008325 316.0438 044.8765 16.41348316 24586
OSSI-1
1 39131U 13015B   13188.41684431  .01502874  74059-5  44818-3 0    85
2 39131 064.8841 114.8425 0051126 026.6892 350.0589 16.22925119 12374
BEESAT-3
1 39134U 13015E   13289.16059864  .00005581  00000-0  44565-3 0  3969
2 39134 064.8784 188.4175 0002530 296.3598 063.7258 15.01196925 26980
BEESAT-2
1 39136U 13015G   13289.16627673  .00005117  00000-0  41096-3 0  3860
2 39136 064.8790 188.4424 0002549 298.4564 061.6303 15.01077281 26983
/EX
